[{"OBJECT_NAME":"STARLINK-4530","OBJECT_ID":"2022-097F","EPOCH":"2026-03-09T10:38:59.954208","MEAN_MOTION":15.08830673,"ECCENTRICITY":0.00011296,"INCLINATION":53.2163,"RA_OF_ASC_NODE":125.2236,"ARG_OF_PERICENTER":81.6249,"MEAN_ANOMALY":278.4871,"EPHEMERIS_TYPE":0,"CLASSIFICATION_TYPE":"U","NORAD_CAT_ID":53393,"ELEMENT_SET_NO":999,"REV_AT_EPOCH":19863,"BSTAR":1.2236218e-5,"MEAN_MOTION_DOT":-9.3e-7,"MEAN_MOTION_DDOT":0},{"OBJECT_NAME":"ICON","OBJECT_ID":"2019-068A","EPOCH":"2026-03-09T22:35:01.599072","MEAN_MOTION":15.06276737,"ECCENTRICITY":0.00134076,"INCLINATION":26.9847,"RA_OF_ASC_NODE":325.9297,"ARG_OF_PERICENTER":187.0145,"MEAN_ANOMALY":173.0229,"EPHEMERIS_TYPE":0,"CLASSIFICATION_TYPE":"U","NORAD_CAT_ID":44628,"ELEMENT_SET_NO":999,"REV_AT_EPOCH":35105,"BSTAR":0.00030799545,"MEAN_MOTION_DOT":4.879e-5,"MEAN_MOTION_DDOT":0}]
